{
  "norad_id": 60044,
  "name": "STARLINK-11148 [DTC]",
  "history": [
    {
      "epoch": "2026-03-28T14:46:04.480896",
      "apogee_km": 360.4508351441682,
      "perigee_km": 358.9563820971762,
      "latitude_deg": -32.29864254110788,
      "longitude_deg": -116.52835456002504,
      "semi_major_axis_km": 6737.840608620672,
      "eccentricity": 0.0001109,
      "inclination_deg": 53.1599,
      "raan_deg": 172.959,
      "arg_perigee_deg": 81.1949,
      "mean_anomaly_deg": 278.9194,
      "mean_motion_rev_day": 15.69718087
    }
  ]
}